NORAD_CAT_ID,OBJECT_NAME,OBJECT_TYPE,EPOCH,MEAN_MOTION,ECCENTRICITY,INCLINATION,RA_OF_ASC_NODE,ARG_OF_PERICENTER,MEAN_ANOMALY,BSTAR,MEAN_MOTION_DOT,MEAN_MOTION_DDOT,TLE_LINE0,TLE_LINE1,TLE_LINE2,SEMIMAJOR_AXIS,PERIOD,APOGEE,PERIGEE,DECAYED
56454.0,STARLINK-5959,PAYLOAD,2023-12-08 12:33:55,14.98319781,0.000254,70.0045,57.4363,213.9302,146.1694,-0.00011682,-1.486e-05,0.0,0 STARLINK-5959,1 56454U 23064G   23342.52355838 -.00001486  00000-0 -11682-3 0  9994,2 56454  70.0045  57.4363 0002540 213.9302 146.1694 14.98319781 32097,6950.224,96.108,573.855,570.324,0.0
56454.0,STARLINK-5959,PAYLOAD,2023-12-09 10:59:47,14.98326925,0.000272,70.002,55.075,257.7992,102.2862,-1.0783e-05,-2.22e-06,0.0,0 STARLINK-5959,1 56454U 23064G   23343.45818879 -.00000222  00000-0 -10783-4 0  9995,2 56454  70.0020  55.0750 0002720 257.7992 102.2862 14.98326925 32598,6950.202,96.107,573.958,570.177,0.0
56454.0,STARLINK-5959,PAYLOAD,2023-12-09 12:35:55,14.98329432,0.0003016,70.001,54.9057,267.017,93.0644,1.7137e-06,-7.3e-07,0.0,0 STARLINK-5959,1 56454U 23064G   23343.52494735 -.00000073  00000-0  17137-5 0  9998,2 56454  70.0010  54.9057 0003016 267.0170  93.0644 14.98329432 32249,6950.195,96.107,574.156,569.963,0.0
56454.0,STARLINK-5959,PAYLOAD,2023-12-09 15:48:11,14.98334221,0.000259,70.0015,54.5692,288.6502,71.4376,7.1064e-05,7.55e-06,0.0,0 STARLINK-5959,1 56454U 23064G   23343.65846566  .00000755  00000-0  71064-4 0  9999,2 56454  70.0015  54.5692 0002590 288.6502  71.4376 14.98334221 32265,6950.18,96.107,573.845,570.245,0.0
56454.0,STARLINK-5959,PAYLOAD,2023-12-10 14:14:04,14.98327107,0.0002909,70.0009,52.2124,270.1779,89.9047,3.7352e-06,-4.8e-07,0.0,0 STARLINK-5959,1 56454U 23064G   23344.59310894 -.00000048  00000-0  37352-5 0  9992,2 56454  70.0009  52.2124 0002909 270.1779  89.9047 14.98327107 32409,6950.202,96.107,574.089,570.045,0.0
56454.0,STARLINK-5959,PAYLOAD,2023-12-11 14:16:05,14.98331766,0.0003185,70.0,49.6873,270.6191,89.4603,-1.2275e-05,-2.39e-06,0.0,0 STARLINK-5959,1 56454U 23064G   23345.59450578 -.00000239  00000-0 -12275-4 0  9996,2 56454  70.0000  49.6873 0003185 270.6191  89.4603 14.98331766 32556,6950.187,96.107,574.266,569.839,0.0
56454.0,STARLINK-5959,PAYLOAD,2023-12-12 14:18:06,14.98329684,0.0003123,69.9999,47.1623,268.3536,91.7265,1.3208e-05,6.5e-07,0.0,0 STARLINK-5959,1 56454U 23064G   23346.59590540  .00000065  00000-0  13208-4 0  9993,2 56454  69.9999  47.1623 0003123 268.3536  91.7265 14.98329684 32708,6950.194,96.107,574.229,569.888,0.0
56454.0,STARLINK-5959,PAYLOAD,2023-12-13 14:20:06,14.9833253,0.0003124,69.9998,44.6371,268.6183,91.4618,1.6818e-05,1.08e-06,0.0,0 STARLINK-5959,1 56454U 23064G   23347.59730240  .00000108  00000-0  16818-4 0  9995,2 56454  69.9998  44.6371 0003124 268.6183  91.4618 14.98332530 32850,6950.185,96.107,574.221,569.879,0.0
56454.0,STARLINK-5959,PAYLOAD,2023-12-14 12:46:00,14.98327611,0.000303,70.0001,42.2807,266.7358,93.3454,-1.4945e-05,-2.71e-06,0.0,0 STARLINK-5959,1 56454U 23064G   23348.53194635 -.00000271  00000-0 -14945-4 0  9994,2 56454  70.0001  42.2807 0003030 266.7358  93.3454 14.98327611 32993,6950.2,96.107,574.171,569.959,0.0
56454.0,STARLINK-5959,PAYLOAD,2023-12-15 11:11:52,14.98332388,0.0003058,70.0,39.9246,263.6723,96.4088,6.7487e-06,-1.2e-07,0.0,0 STARLINK-5959,1 56454U 23064G   23349.46658160 -.00000012  00000-0  67487-5 0  9997,2 56454  70.0000  39.9246 0003058 263.6723  96.4088 14.98332388 33494,6950.186,96.107,574.176,569.925,0.0
56454.0,STARLINK-5959,PAYLOAD,2023-12-15 12:48:00,14.9833201,0.0003077,70.0,39.7561,265.2546,94.8261,1.2797e-06,-7.8e-07,0.0,0 STARLINK-5959,1 56454U 23064G   23349.53334198 -.00000078  00000-0  12797-5 0  9993,2 56454  70.0000  39.7561 0003077 265.2546  94.8261 14.98332010 33143,6950.187,96.107,574.19,569.913,0.0
56454.0,STARLINK-5959,PAYLOAD,2023-12-16 11:13:54,14.98326176,0.0003062,69.9998,37.399,263.6322,96.4489,-3.457e-06,-1.34e-06,0.0,0 STARLINK-5959,1 56454U 23064G   23350.46798640 -.00000134  00000-0 -34570-5 0  9990,2 56454  69.9998  37.3990 0003062 263.6322  96.4489 14.98326176 33645,6950.205,96.107,574.198,569.942,0.0
56454.0,STARLINK-5959,PAYLOAD,2023-12-16 12:50:02,14.98326034,0.000308,69.9997,37.2306,264.7797,95.301,-6.1465e-06,-1.66e-06,0.0,0 STARLINK-5959,1 56454U 23064G   23350.53474676 -.00000166  00000-0 -61465-5 0  9996,2 56454  69.9997  37.2306 0003080 264.7797  95.3010 14.98326034 33294,6950.205,96.107,574.211,569.929,0.0
56454.0,STARLINK-5959,PAYLOAD,2023-12-17 11:15:53,14.98329658,0.0002617,70.0006,34.8732,258.3663,101.7203,-3.3003e-05,-4.87e-06,0.0,0 STARLINK-5959,1 56454U 23064G   23351.46936671 -.00000487  00000-0 -33003-4 0  9999,2 56454  70.0006  34.8732 0002617 258.3663 101.7203 14.98329658 33796,6950.194,96.107,573.878,570.24,0.0
56454.0,STARLINK-5959,PAYLOAD,2023-12-17 12:52:01,14.98331707,0.0003024,69.9993,34.7021,272.5657,87.5155,-3.3359e-05,-4.91e-06,0.0,0 STARLINK-5959,1 56454U 23064G   23351.53612542 -.00000491  00000-0 -33359-4 0  9994,2 56454  69.9993  34.7021 0003024 272.5657  87.5155 14.98331707 33449,6950.188,96.107,574.154,569.951,0.0
56454.0,STARLINK-5959,PAYLOAD,2023-12-18 03:17:14,14.98322451,0.0002892,69.9997,33.1895,265.3843,94.6985,-8.5329e-05,-1.111e-05,0.0,0 STARLINK-5959,1 56454U 23064G   23352.13697531 -.00001111  00000-0 -85329-4 0  9996,2 56454  69.9997  33.1895 0002892 265.3843  94.6985 14.98322451 33899,6950.216,96.107,574.091,570.071,0.0
56454.0,STARLINK-5959,PAYLOAD,2023-12-18 12:54:02,14.98324905,0.0002837,70.0,32.1801,265.6755,94.408,-5.5609e-05,-7.56e-06,0.0,0 STARLINK-5959,1 56454U 23064G   23352.53753382 -.00000756  00000-0 -55609-4 0  9999,2 56454  70.0000  32.1801 0002837 265.6755  94.4080 14.98324905 33594,6950.209,96.107,574.045,570.102,0.0
56454.0,STARLINK-5959,PAYLOAD,2023-12-19 03:19:15,14.98314159,0.0002534,70.0006,30.6648,267.1277,92.9592,-0.00020239,-2.506e-05,0.0,0 STARLINK-5959,1 56454U 23064G   23353.13837922 -.00002506  00000-0 -20239-3 0  9994,2 56454  70.0006  30.6648 0002534 267.1277  92.9592 14.98314159 34044,6950.242,96.108,573.868,570.346,0.0
56454.0,STARLINK-5959,PAYLOAD,2023-12-19 12:56:04,14.98316013,0.0002409,70.0006,29.6556,256.6618,103.4273,-0.00027212,-3.337e-05,0.0,0 STARLINK-5959,1 56454U 23064G   23353.53894391 -.00003337  00000-0 -27212-3 0  9992,2 56454  70.0006  29.6556 0002409 256.6618 103.4273 14.98316013 33744,6950.236,96.108,573.775,570.427,0.0
56454.0,STARLINK-5959,PAYLOAD,2023-12-20 03:21:17,14.98343145,0.0002692,69.9981,28.1394,263.7599,96.3253,-0.0004465,-5.418e-05,0.0,0 STARLINK-5959,1 56454U 23064G   23354.13978224 -.00005418  00000-0 -44650-3 0  9994,2 56454  69.9981  28.1394 0002692 263.7599  96.3253 14.98343145 34192,6950.152,96.106,573.888,570.146,0.0
56454.0,STARLINK-5959,PAYLOAD,2023-12-20 11:21:59,14.98295414,0.0002319,70.0013,27.3014,250.2435,109.8474,-0.00017372,-2.163e-05,0.0,0 STARLINK-5959,1 56454U 23064G   23354.47360261 -.00002163  00000-0 -17372-3 0  9992,2 56454  70.0013  27.3014 0002319 250.2435 109.8474 14.98295414 34243,6950.3,96.109,573.777,570.553,0.0
56454.0,STARLINK-5959,PAYLOAD,2023-12-20 12:58:05,14.98319991,0.0002006,70.0007,27.1315,285.3669,74.7268,0.00010105,1.113e-05,0.0,0 STARLINK-5959,1 56454U 23064G   23354.54034434  .00001113  00000-0  10105-3 0  9999,2 56454  70.0007  27.1315 0002006 285.3669  74.7268 14.98319991 33897,6950.224,96.108,573.483,570.695,0.0
56454.0,STARLINK-5959,PAYLOAD,2023-12-21 11:23:58,14.98315972,0.0002252,70.0007,24.7749,272.6198,87.4703,0.00031134,3.622e-05,0.0,0 STARLINK-5959,1 56454U 23064G   23355.47498385  .00003622  00000-0  31134-3 0  9993,2 56454  70.0007  24.7749 0002252 272.6198  87.4703 14.98315972 34037,6950.236,96.108,573.666,570.536,0.0
56454.0,STARLINK-5959,PAYLOAD,2023-12-22 03:25:19,14.98329962,0.0002421,70.001,23.0929,250.4216,109.6682,5.1169e-06,-3.2e-07,0.0,0 STARLINK-5959,1 56454U 23064G   23356.14258267 -.00000032  00000-0  51169-5 0  9996,2 56454  70.0010  23.0929 0002421 250.4216 109.6682 14.98329962 34493,6950.193,96.107,573.741,570.375,0.0
56454.0,STARLINK-5959,PAYLOAD,2023-12-22 11:25:59,14.98325431,0.0002331,70.0007,22.2493,248.1274,111.9637,-2.1013e-05,-3.44e-06,0.0,0 STARLINK-5959,1 56454U 23064G   23356.47638590 -.00000344  00000-0 -21013-4 0  9994,2 56454  70.0007  22.2493 0002331 248.1274 111.9637 14.98325431 34183,6950.207,96.107,573.692,570.452,0.0
56454.0,STARLINK-5959,PAYLOAD,2023-12-23 03:27:19,14.98333075,0.000244,70.0005,20.5655,248.8244,111.2654,-4.2153e-05,-5.96e-06,0.0,0 STARLINK-5959,1 56454U 23064G   23357.14398124 -.00000596  00000-0 -42153-4 0  9992,2 56454  70.0005  20.5655 0002440 248.8244 111.2654 14.98333075 34643,6950.183,96.107,573.744,570.353,0.0
56454.0,STARLINK-5959,PAYLOAD,2023-12-23 11:28:00,14.98330764,0.0002481,70.0005,19.7241,251.096,108.993,-6.5885e-05,-8.79e-06,0.0,0 STARLINK-5959,1 56454U 23064G   23357.47778315 -.00000879  00000-0 -65885-4 0  9993,2 56454  70.0005  19.7241 0002481 251.0960 108.9930 14.98330764 34338,6950.191,96.107,573.78,570.331,0.0
56454.0,STARLINK-5959,PAYLOAD,2023-12-24 03:29:20,14.98329163,0.0002648,70.0,18.0405,256.5501,103.5363,2.3305e-05,1.85e-06,0.0,0 STARLINK-5959,1 56454U 23064G   23358.14538142  .00000185  00000-0  23305-4 0  9999,2 56454  70.0000  18.0405 0002648 256.5501 103.5363 14.98329163 34795,6950.195,96.107,573.901,570.22,0.0
56454.0,STARLINK-5959,PAYLOAD,2023-12-24 11:30:01,14.98329106,0.0002688,69.9998,17.198,261.9049,98.1805,2.1176e-05,1.6e-06,0.0,0 STARLINK-5959,1 56454U 23064G   23358.47918185  .00000160  00000-0  21176-4 0  9991,2 56454  69.9998  17.1980 0002688 261.9049  98.1805 14.98329106 34480,6950.196,96.107,573.929,570.192,0.0
56454.0,STARLINK-5959,PAYLOAD,2023-12-25 03:31:21,14.98332606,0.0002756,69.9996,15.514,265.287,94.7975,3.885e-05,3.71e-06,0.0,0 STARLINK-5959,1 56454U 23064G   23359.14677863  .00000371  00000-0  38850-4 0  9992,2 56454  69.9996  15.5140 0002756 265.2870  94.7975 14.98332606 34943,6950.185,96.107,573.965,570.134,0.0
